Name,Website,Address,Phone,Latitude,Longitude,City
大悲院,https://you.ctrip.com/sight/qinhuangdao132/123777.html?scene=online,河北省秦皇岛市山海关区古城东北片区,,,,QingHuangDao
燕塞湖景区-凉亭,https://you.ctrip.com/sight/qinhuangdao132/67629241.html?scene=online,秦皇岛市山海关区城西北7华里燕塞湖景区内,,,,QingHuangDao
燕塞湖鸟语林,https://you.ctrip.com/sight/qinhuangdao132/5039.html?scene=online,秦皇岛山海关城西北3.5公里处,0335-5158828,,,QingHuangDao
五佛山国际生态旅游度假区,https://you.ctrip.com/sight/qinhuangdao132/123747.html?scene=online,河北省秦皇岛市山海关区附近长寿山景区内,,,,QingHuangDao
山海关长城文化奇观园,https://you.ctrip.com/sight/qinhuangdao132/134802.html?scene=online,河北省秦皇岛市山海关区第一关镇老龙头景区,0335-5152996,,,QingHuangDao
山海关总兵府,https://you.ctrip.com/sight/qinhuangdao132/5067017.html?scene=online,秦皇岛市山海关区内古城西大街16号,,,,QingHuangDao
山海关长城文化奇观园-山海行宫,https://you.ctrip.com/sight/qinhuangdao132/5596414.html?scene=online,秦皇岛市山海关区龙海大道1号,,,,QingHuangDao
秦宫,https://you.ctrip.com/sight/qinhuangdao132/145267022.html?scene=online,秦皇岛市山海关区城东约6公里的望夫石村后山岗上孟姜女庙景区内,,,,QingHuangDao
角山景区,https://you.ctrip.com/sight/qinhuangdao132/144104071.html?scene=online,秦皇岛市山海关区角山路山海关城北约3公里,,,,QingHuangDao
靖边楼,https://you.ctrip.com/sight/qinhuangdao132/134085096.html?scene=online,秦皇岛市山海关区南大街5-1号山海关古城内,0335-5051106,,,QingHuangDao
乐岛海滩,https://you.ctrip.com/sight/qinhuangdao132/145609019.html?scene=online,秦皇岛市山海关区龙海大道南50米,,,,QingHuangDao
中国长城艺术馆,https://you.ctrip.com/sight/qinhuangdao132/145312976.html?scene=online,秦皇岛市山海关区龙海大道1号山海行宫内,,,,QingHuangDao
山海关老龙头景区-凉亭,https://you.ctrip.com/sight/qinhuangdao132/4616217.html?scene=online,秦皇岛市山海关区龙海大道1号老龙头景区内,0335-5152996,,,QingHuangDao
山海关迎恩楼,https://you.ctrip.com/sight/qinhuangdao132/1675640.html?scene=online,秦皇岛市山海关区南大街5-1号山海关古城内,0335-5259000,,,QingHuangDao
山海关望洋楼,https://you.ctrip.com/sight/qinhuangdao132/5613354.html?scene=online,河北省秦皇岛市山海关区山海关古城景区南门,"0335-5259000,0335-5265061",,,QingHuangDao
角山索道-上站,https://you.ctrip.com/sight/qinhuangdao132/64671232.html?scene=online,秦皇岛市山海关区五佛山国际生态旅游度假区角山景区内,,,,QingHuangDao
山海关城楼,https://you.ctrip.com/sight/qinhuangdao132/5140947.html?scene=online,山海关区境内,"0335-5258000,0335-5259000",,,QingHuangDao
山海关老龙头景区-龙武营,https://you.ctrip.com/sight/qinhuangdao132/134071195.html?scene=online,秦皇岛市山海关区龙海大道1号老龙头景区内,0335-5152996,,,QingHuangDao
乐岛水上乐园,https://you.ctrip.com/sight/qinhuangdao132/145504621.html?scene=online,河北省秦皇岛市山海关区石河镇G228(龙海大道),,,,QingHuangDao
海逸名都温泉,https://you.ctrip.com/sight/qinhuangdao132/1715049.html?scene=online,河北省秦皇岛市山海关区南窑河36-1号,,,,QingHuangDao
白鹭岛,https://you.ctrip.com/sight/qinhuangdao132/1675677.html?scene=online,河北省秦皇岛市山海关区天福中路南130米,,,,QingHuangDao
海神庙,https://you.ctrip.com/sight/qinhuangdao132/1832016.html?scene=online,秦皇岛市山海关区龙海大道1号老龙头景区内,"0335-5152996,0335-5257058",,,QingHuangDao
山海关长城博物馆,https://you.ctrip.com/sight/qinhuangdao132/1675539.html?scene=online,河北省秦皇岛市山海关区第一关路,0335-5051313,,,QingHuangDao
山海关老龙头免费沙滩浴场,https://you.ctrip.com/sight/qinhuangdao132/112648301.html?scene=online,蓝天别墅附近,,,,QingHuangDao
澄海楼,https://you.ctrip.com/sight/qinhuangdao132/134799.html?scene=online,秦皇岛市山海关区龙海大道1号老龙头景区内,0335-5152996,,,QingHuangDao
山海关钟鼓楼,https://you.ctrip.com/sight/qinhuangdao132/112649602.html?scene=online,秦皇岛市山海关区西大街13号山海关风景区内,"0335-5258000,0335-5259000",,,QingHuangDao
长寿山,https://you.ctrip.com/sight/qinhuangdao132/5038.html?scene=online,秦皇岛市山海关区三道关村,"0335-5259000,0335-5176633",,,QingHuangDao
闯关东主题文化体验馆,https://you.ctrip.com/sight/qinhuangdao132/5590353.html?scene=online,河北省秦皇岛市山海关区东大街12号,0335-5265992,,,QingHuangDao
老龙头码头游船,https://you.ctrip.com/sight/qinhuangdao132/5713451.html?scene=online,秦皇岛市山海关区龙海大道1号老龙头景区内,0335-5152225,,,QingHuangDao
孟姜女庙,https://you.ctrip.com/sight/qinhuangdao132/5037.html?scene=online,河北省秦皇岛市山海关区望夫石村,0335-5051359,,,QingHuangDao
山海关王家大院,https://you.ctrip.com/sight/qinhuangdao132/123761.html?scene=online,河北省秦皇岛市山海关区古城东三条29号,"0335-5067700,0335-5067755",,,QingHuangDao
求仙6号游船,https://you.ctrip.com/sight/qinhuangdao132/144970046.html?scene=online,秦皇岛市山海关区老龙头路1号,0335-5152225,,,QingHuangDao
山海关古城景区,https://you.ctrip.com/sight/qinhuangdao132/1833320.html?scene=online,河北省秦皇岛市山海关南大街5-1,0335-5051106,,,QingHuangDao
角山长城,https://you.ctrip.com/sight/qinhuangdao132/5036.html?scene=online,河北省秦皇岛市山海关区角山路,"0335-8352639,0335-5152916",,,QingHuangDao
乐岛海洋王国,https://you.ctrip.com/sight/qinhuangdao132/66698.html?scene=online,秦皇岛市山海关区龙海大道148号,0335-5158888,,,QingHuangDao
天下第一关,https://you.ctrip.com/sight/qinhuangdao132/123669.html?scene=online,河北省秦皇岛市山海关区东大街1号,"0335-5258000,0335-5259000,4006033566",,,QingHuangDao
老龙头,https://you.ctrip.com/sight/qinhuangdao132/5035.html?scene=online,秦皇岛市山海关区老龙头路1号,0335-5152996,,,QingHuangDao
山海关,https://you.ctrip.com/sight/qinhuangdao132/5040.html?scene=online,河北省秦皇岛市山海关区东大街1号,"4006033566,0335-5051106",,,QingHuangDao
山海关古城历史博物馆,https://you.ctrip.com/sight/qinhuangdao132/145245212.html?scene=online,河北省秦皇岛市山海关区西大街16号,,,,QingHuangDao
镇远镖局,https://you.ctrip.com/sight/qinhuangdao132/131897130.html?scene=online,秦皇岛市山海关区西大街14号,,,,QingHuangDao
山海关中国长城博物馆,https://you.ctrip.com/sight/qinhuangdao132/148681454.html?scene=online,河北省秦皇岛市山海关区G102北侧,,,,QingHuangDao
孟姜女庙景区-凉亭,https://you.ctrip.com/sight/qinhuangdao132/4626658.html?scene=online,秦皇岛市山海关区城东约6公里的望夫石村后山岗上孟姜女庙景区内,,,,QingHuangDao
瑞莲阁,https://you.ctrip.com/sight/qinhuangdao132/134084723.html?scene=online,河北省秦皇岛市山海关区东大街1号天下第一关景区内,0335-5258000,,,QingHuangDao
入海石城,https://you.ctrip.com/sight/qinhuangdao132/126180846.html?scene=online,秦皇岛市山海关区龙海大道1号老龙头景区内,,,,QingHuangDao
国家地质公园长寿山景区,https://you.ctrip.com/sight/qinhuangdao132/144103789.html?scene=online,秦皇岛市山海关区三道关村,,,,QingHuangDao
山海关说书馆堂会,https://you.ctrip.com/sight/qinhuangdao132/145705308.html?scene=online,秦皇岛市山海关古城东大街3-10号	,18630376319,,,QingHuangDao
燕塞湖鸟语林景区,https://you.ctrip.com/sight/qinhuangdao132/144431915.html?scene=online,秦皇岛市山海关区小陈庄北,,,,QingHuangDao
山海关老龙头景区-正堂,https://you.ctrip.com/sight/qinhuangdao132/145346047.html?scene=online,秦皇岛市山海关区龙海大道1号老龙头景区守备署内,,,,QingHuangDao
猪猪亲子乐园,https://you.ctrip.com/sight/qinhuangdao132/140046049.html?scene=online,河北省秦皇岛市山海关区龙源大道20、22号,0335-3333033,,,QingHuangDao
兵部分司,https://you.ctrip.com/sight/qinhuangdao132/1675697.html?scene=online,秦皇岛市山海关区东大街1号天下第一关景区内,,,,QingHuangDao
王家大院山海关民俗博物馆(东三条),https://you.ctrip.com/sight/qinhuangdao132/1834237.html?scene=online,东三条29-31号,"0335-5067700,0335-5258000",,,QingHuangDao
老龙头嗨King帐篷露营地,https://you.ctrip.com/sight/qinhuangdao132/134785214.html?scene=online,河北省秦皇岛市山海关区老龙头路老龙头景区西门,,,,QingHuangDao
孟姜女哭倒长城处,https://you.ctrip.com/sight/qinhuangdao132/145651500.html?scene=online,秦皇岛市山海关区姜女庙路孟姜女庙景区内,,,,QingHuangDao
山海关镇东楼,https://you.ctrip.com/sight/qinhuangdao132/5131956.html?scene=online,山海关区东北,,,,QingHuangDao
莲花湖公园,https://you.ctrip.com/sight/qinhuangdao132/123744.html?scene=online,秦皇岛市山海关区东水关街23号(近火车站),,,,QingHuangDao
宁海城,https://you.ctrip.com/sight/qinhuangdao132/1832755.html?scene=online,秦皇岛市山海关区龙海大道1号老龙头景区内,,,,QingHuangDao
海上摩托艇,https://you.ctrip.com/sight/qinhuangdao132/145276878.html?scene=online,秦皇岛市山海关区龙海大道148号乐岛公园搏海湾内,,,,QingHuangDao
白鹭岛第二海滨浴场,https://you.ctrip.com/sight/qinhuangdao132/145553725.html?scene=online,河北省秦皇岛市山海关区龙海大道唐子寨对面,,,,QingHuangDao
阳光浴场,https://you.ctrip.com/sight/qinhuangdao132/145127830.html?scene=online,秦皇岛市山海关区海口道假日蓝湾南侧约150米,,,,QingHuangDao
山海关古城景区-王氏宗祠,https://you.ctrip.com/sight/qinhuangdao132/4616269.html?scene=online,秦皇岛市山海关区东三条29~31号王家大院内,,,,QingHuangDao
牢房,https://you.ctrip.com/sight/qinhuangdao132/145365818.html?scene=online,秦皇岛市山海关区龙海大道1号老龙头景区内,,,,QingHuangDao
儿童戏水池,https://you.ctrip.com/sight/qinhuangdao132/4616280.html?scene=online,秦皇岛市山海关区龙海大道148号乐岛公园戏水乐园内,,,,QingHuangDao
山海关老龙头景区-巢车,https://you.ctrip.com/sight/qinhuangdao132/83232688.html?scene=online,秦皇岛市山海关区龙海大道1号老龙头景区龙武营内,,,,QingHuangDao
六国饭店旧址,https://you.ctrip.com/sight/qinhuangdao132/145533990.html?scene=online,秦皇岛市山海关区南海道秦皇岛市山海关区铁路小学,,,,QingHuangDao
栖贤寺,https://you.ctrip.com/sight/qinhuangdao132/1675503.html?scene=online,秦皇岛市山海关区五佛山国际生态旅游度假区角山景区内,,,,QingHuangDao
兴儒博物馆,https://you.ctrip.com/sight/qinhuangdao132/5544477.html?scene=online,河北省秦皇岛市山海关区古城南大街32-4号,18833533222,,,QingHuangDao
山海关老龙头景区-财神殿,https://you.ctrip.com/sight/qinhuangdao132/4616237.html?scene=online,秦皇岛市山海关区龙海大道1号老龙头景区海神庙内,,,,QingHuangDao
西南交通大学山海关北洋铁路官学堂旧址,https://you.ctrip.com/sight/qinhuangdao132/143726075.html?scene=online,秦皇岛市山海关区站西街兴华小区(货场前街)西南侧约130米,,,,QingHuangDao
山海关古城景区-长城剧场,https://you.ctrip.com/sight/qinhuangdao132/145571986.html?scene=online,河北省秦皇岛市山海关区关路24号,,,,QingHuangDao
石河古渡,https://you.ctrip.com/sight/qinhuangdao132/133820995.html?scene=online,河北省秦皇岛市山海关区老龙头码头老龙头景区停车场进入,0335-5158101,,,QingHuangDao
乐岛公园-沙滩卡丁车,https://you.ctrip.com/sight/qinhuangdao132/145847090.html?scene=online,秦皇岛市山海关区龙海大道148号乐岛公园内,,,,QingHuangDao
世外桃源,https://you.ctrip.com/sight/qinhuangdao132/1675419.html?scene=online,秦皇岛市山海关区三道关村附近长寿山景区内,,,,QingHuangDao
燕塞湖景区-游乐场,https://you.ctrip.com/sight/qinhuangdao132/145455213.html?scene=online,河北省秦皇岛市山海关区燕塞湖路燕塞湖景区,,,,QingHuangDao
乐岛海洋王国-凉亭,https://you.ctrip.com/sight/qinhuangdao132/64669874.html?scene=online,秦皇岛市山海关区龙海大道148号乐岛公园内,,,,QingHuangDao
田公馆,https://you.ctrip.com/sight/qinhuangdao132/134078554.html?scene=online,河北省秦皇岛市山海关区西大街26号,,,,QingHuangDao
镇东楼,https://you.ctrip.com/sight/qinhuangdao132/130887000.html?scene=online,秦皇岛市山海关区城南5公里处天下第一关景区内,0335-5258000,,,QingHuangDao
燕塞湖索道-上站,https://you.ctrip.com/sight/qinhuangdao132/64669236.html?scene=online,秦皇岛市山海关区城西北7华里燕塞湖景区内,,,,QingHuangDao
闯关东,https://you.ctrip.com/sight/qinhuangdao132/145273405.html?scene=online,河北省秦皇岛市山海关区古城东大街12号,,,,QingHuangDao
山海关老龙头景区-八国联军军营遗址,https://you.ctrip.com/sight/qinhuangdao132/145641736.html?scene=online,秦皇岛市山海关区老龙头景区,,,,QingHuangDao
山海关大明帅府,https://you.ctrip.com/sight/qinhuangdao132/145592772.html?scene=online,秦皇岛市山海关区东罗城大街山海关古城景区,,,,QingHuangDao
白鹭岛沙滩房车露营基地,https://you.ctrip.com/sight/qinhuangdao132/145573290.html?scene=online,秦皇岛市山海关区龙海大道秦皇岛观潮香居特色民宿西南侧约210米,,,,QingHuangDao
山海关白鹭湾帆船俱乐部,https://you.ctrip.com/sight/qinhuangdao132/140771820.html?scene=online,河北省秦皇岛市山海关区龙海大道128号,18033508888,,,QingHuangDao
山海关保卫战纪念厅,https://you.ctrip.com/sight/qinhuangdao132/134080118.html?scene=online,秦皇岛市山海关区穆家胡同2号,,,,QingHuangDao
山海镇督师府,https://you.ctrip.com/sight/qinhuangdao132/5711738.html?scene=online,河北省秦皇岛市山海关区西大街16号,18931353226,,,QingHuangDao
蟹岛温泉乐园,https://you.ctrip.com/sight/qinhuangdao132/140768366.html?scene=online,河北省秦皇岛市山海关区田庄村山海关机场正门南800米,,,,QingHuangDao
甲申史鉴馆,https://you.ctrip.com/sight/qinhuangdao132/5168470.html?scene=online,秦皇岛市山海关区西大街66号,0335-5136179,,,QingHuangDao
关帝殿,https://you.ctrip.com/sight/qinhuangdao132/4616346.html?scene=online,秦皇岛市山海关区五佛山国际生态旅游度假区角山景区内,,,,QingHuangDao
浪山海野奢营地,https://you.ctrip.com/sight/qinhuangdao132/148463242.html?scene=online,秦皇岛市山海关区乐岛海洋公园南,,,,QingHuangDao
神医华佗石窟,https://you.ctrip.com/sight/qinhuangdao132/1675452.html?scene=online,秦皇岛市山海关区三道关村附近长寿山景区内,,,,QingHuangDao
威远公园,https://you.ctrip.com/sight/qinhuangdao132/4616219.html?scene=online,秦皇岛市山海关区关城西路与双棉山路交叉路口东侧,,,,QingHuangDao
国家地质公园长寿山景区-凉亭,https://you.ctrip.com/sight/qinhuangdao132/4626705.html?scene=online,秦皇岛市山海关区三道关村附近长寿山景区内,,,,QingHuangDao
芦沟桥西城门,https://you.ctrip.com/sight/qinhuangdao132/145395276.html?scene=online,河北省秦皇岛市山海关区G1(京哈高速),,,,QingHuangDao
清真寺,https://you.ctrip.com/sight/qinhuangdao132/64673599.html?scene=online,河北省秦皇岛市山海关区关城西路34号,18833833911,,,QingHuangDao
听竹轩,https://you.ctrip.com/sight/qinhuangdao132/145391847.html?scene=online,河北省秦皇岛市山海关区齐家楼胡同6号,,,,QingHuangDao
守备署,https://you.ctrip.com/sight/qinhuangdao132/143349938.html?scene=online,秦皇岛市山海关区龙海大道1号老龙头景区内,0335-5152996,,,QingHuangDao
山海关妈祖庙,https://you.ctrip.com/sight/qinhuangdao132/143737261.html?scene=online,秦皇岛市山海关区龙海大道,,,,QingHuangDao
一线天,https://you.ctrip.com/sight/qinhuangdao132/145197607.html?scene=online,秦皇岛市山海关区三道关村附近长寿山景区内,,,,QingHuangDao
天下第一关景区-箭楼,https://you.ctrip.com/sight/qinhuangdao132/145326324.html?scene=online,河北省秦皇岛市山海关区东大街1号山海关-天下第一关景区内,,,,QingHuangDao
山海关老龙头景区-遗址洞,https://you.ctrip.com/sight/qinhuangdao132/145671069.html?scene=online,秦皇岛市山海关区龙海大道1号老龙头景区内,,,,QingHuangDao
孔庙,https://you.ctrip.com/sight/qinhuangdao132/4616222.html?scene=online,秦皇岛市山海关区古城西大街山海关总兵府景区内,,,,QingHuangDao
石河樱桃采摘园,https://you.ctrip.com/sight/qinhuangdao132/145306665.html?scene=online,河北省秦皇岛市山海关区燕塞大道36号,,,,QingHuangDao
皮划艇漂流,https://you.ctrip.com/sight/qinhuangdao132/145543880.html?scene=online,秦皇岛市山海关区龙海大道148号乐岛公园戏水乐园内,,,,QingHuangDao
卧龙山庄,https://you.ctrip.com/sight/qinhuangdao132/145514516.html?scene=online,河北省秦皇岛市山海关区京秦高速入口与京秦高速交叉口西南约180米,,,,QingHuangDao
老龙头码头,https://you.ctrip.com/sight/qinhuangdao132/148623286.html?scene=online,秦皇岛市山海关区龙海大道1号老龙头景区内,,,,QingHuangDao
极地馆,https://you.ctrip.com/sight/qinhuangdao132/145579510.html?scene=online,秦皇岛市山海关区龙海大道148号乐岛公园海底总动员内,,,,QingHuangDao
山海关古城电瓶车专线古城西门站(迎恩楼),https://you.ctrip.com/sight/qinhuangdao132/145255640.html?scene=online,秦皇岛市山海关区东大街1号山海关古城景区内,,,,QingHuangDao
悬阳洞,https://you.ctrip.com/sight/qinhuangdao132/5186.html?scene=online,秦皇岛市山海关区三道关村附近长寿山景区内,,,,QingHuangDao
牧营楼,https://you.ctrip.com/sight/qinhuangdao132/134085494.html?scene=online,秦皇岛市山海关区南大街5-1号山海关古城内,0335-5258000,,,QingHuangDao
日军飞机场(沙河子飞机场),https://you.ctrip.com/sight/qinhuangdao132/145425647.html?scene=online,秦皇岛市山海关区城南5公里处天下第一关景区内,,,,QingHuangDao
四野临时指挥部,https://you.ctrip.com/sight/qinhuangdao132/5067339.html?scene=online,秦皇岛市山海关区穆家胡同2号,,,,QingHuangDao
礁石瀑布,https://you.ctrip.com/sight/qinhuangdao132/145207542.html?scene=online,秦皇岛市山海关区龙海大道148号乐岛公园戏水乐园内,,,,QingHuangDao
山海关出海打渔俱乐部,https://you.ctrip.com/sight/qinhuangdao132/145342572.html?scene=online,河北省秦皇岛市海港区文化路152号,,,,QingHuangDao
古城特色纪念品,https://you.ctrip.com/sight/qinhuangdao132/145561415.html?scene=online,秦皇岛市山海关区东大街1-1,,,,QingHuangDao
望夫石,https://you.ctrip.com/sight/qinhuangdao132/144103598.html?scene=online,河北省秦皇岛市山海关区姜女庙路1号孟姜女庙,,,,QingHuangDao
蓝蜻蜓游艇会,https://you.ctrip.com/sight/qinhuangdao132/4616239.html?scene=online,秦皇岛市山海关区石河路山海新城小区西南侧约220米,,,,QingHuangDao
詹荣府,https://you.ctrip.com/sight/qinhuangdao132/112652277.html?scene=online,秦皇岛市山海关区西大街55号,,,,QingHuangDao
尚书坊,https://you.ctrip.com/sight/qinhuangdao132/143731411.html?scene=online,秦皇岛市山海关区西大街秦皇岛山海假日酒店东南门东侧约70米,,,,QingHuangDao
大慈院,https://you.ctrip.com/sight/qinhuangdao132/144103926.html?scene=online,河北省秦皇岛市山海关区西大街55号,,,,QingHuangDao
假山,https://you.ctrip.com/sight/qinhuangdao132/145123851.html?scene=online,秦皇岛市山海关区燕塞湖路松鼠园内,,,,QingHuangDao
山海关区文化馆,https://you.ctrip.com/sight/qinhuangdao132/145137862.html?scene=online,河北省秦皇岛市山海关区工人街南街水郡御景1号楼三层,,,,QingHuangDao
士兵房,https://you.ctrip.com/sight/qinhuangdao132/145157820.html?scene=online,秦皇岛市山海关区龙海大道1号老龙头景区龙武营内,,,,QingHuangDao
镇远镖局-账房,https://you.ctrip.com/sight/qinhuangdao132/145167796.html?scene=online,秦皇岛市山海关区吉城西大街14号镇远镖局内,,,,QingHuangDao
鸟语林-中心柱,https://you.ctrip.com/sight/qinhuangdao132/145187787.html?scene=online,秦皇岛市山海关区城西北7华里燕塞湖景区鸟语林内,,,,QingHuangDao
农具馆,https://you.ctrip.com/sight/qinhuangdao132/145213971.html?scene=online,秦皇岛市山海关区东三条29~31号王家大院内,,,,QingHuangDao
揽古堂,https://you.ctrip.com/sight/qinhuangdao132/145237341.html?scene=online,秦皇岛市山海关区西大街山海关古城历史博物馆,,,,QingHuangDao
公生明,https://you.ctrip.com/sight/qinhuangdao132/145255841.html?scene=online,秦皇岛市山海关区古城西大街山海关总兵府景区山海镇总兵府内,,,,QingHuangDao
山海关老龙头景区-把总署,https://you.ctrip.com/sight/qinhuangdao132/145273383.html?scene=online,秦皇岛市山海关区龙海大道1号老龙头景区内,,,,QingHuangDao
晓月亭,https://you.ctrip.com/sight/qinhuangdao132/145295153.html?scene=online,秦皇岛市山海关区东大街1号天下第一关景区内,,,,QingHuangDao
横空石壁,https://you.ctrip.com/sight/qinhuangdao132/145316394.html?scene=online,秦皇岛市山海关区城西北7华里燕塞湖景区内,,,,QingHuangDao
妙手投篮,https://you.ctrip.com/sight/qinhuangdao132/145363702.html?scene=online,秦皇岛市山海关区龙海大道148号乐岛公园海洋嘉年华内,,,,QingHuangDao
中华巧女姜艳华剪纸艺术馆,https://you.ctrip.com/sight/qinhuangdao132/145385476.html?scene=online,秦皇岛市山海关区龙海大道1号老龙头景区内,,,,QingHuangDao
自控飞碟,https://you.ctrip.com/sight/qinhuangdao132/145385472.html?scene=online,秦皇岛市山海关区龙海大道148号乐岛公园海洋嘉年华内,,,,QingHuangDao
大慈院-牌楼,https://you.ctrip.com/sight/qinhuangdao132/145383447.html?scene=online,秦皇岛市山海关区古城东北片区大悲院内,,,,QingHuangDao
潮河公园,https://you.ctrip.com/sight/qinhuangdao132/145375691.html?scene=online,秦皇岛市山海关区长城西街名丰山海文园-南区西北侧,,,,QingHuangDao
愿望池,https://you.ctrip.com/sight/qinhuangdao132/145375682.html?scene=online,秦皇岛市山海关区龙海大道148号乐岛公园海底总动员内,,,,QingHuangDao
三星飞旋,https://you.ctrip.com/sight/qinhuangdao132/145373622.html?scene=online,秦皇岛市山海关区龙海大道148号乐岛公园海洋嘉年华内,,,,QingHuangDao
城隍庙,https://you.ctrip.com/sight/qinhuangdao132/145372226.html?scene=online,秦皇岛市山海关区古城西大街山海关总兵府景区十二生肖太岁神院内,,,,QingHuangDao
浪摆滑道,https://you.ctrip.com/sight/qinhuangdao132/145372205.html?scene=online,秦皇岛市山海关区龙海大道148号乐岛公园戏水乐园内,,,,QingHuangDao
秦皇岛烈士陵园,https://you.ctrip.com/sight/qinhuangdao132/145365836.html?scene=online,河北省秦皇岛市山海关区孟姜镇吕家沟村北欢喜岭,,,,QingHuangDao
玛雅舞台,https://you.ctrip.com/sight/qinhuangdao132/145365829.html?scene=online,秦皇岛市山海关区龙海大道148号乐岛公园海洋嘉年华内,,,,QingHuangDao
六角亭,https://you.ctrip.com/sight/qinhuangdao132/145362256.html?scene=online,秦皇岛市山海关区五佛山国际生态旅游度假区角山景区内,,,,QingHuangDao
金棕榈电影院(山海关店),https://you.ctrip.com/sight/qinhuangdao132/145362251.html?scene=online,关城南路93号,,,,QingHuangDao
碰碰车,https://you.ctrip.com/sight/qinhuangdao132/145362247.html?scene=online,秦皇岛市山海关区龙海大道148号乐岛公园海洋嘉年华内,,,,QingHuangDao
棕熊拜山,https://you.ctrip.com/sight/qinhuangdao132/145355995.html?scene=online,秦皇岛市山海关区城西北7华里燕塞湖景区内,,,,QingHuangDao
义海锦丝丝绸展览馆,https://you.ctrip.com/sight/qinhuangdao132/145355992.html?scene=online,河北省秦皇岛市山海关区龙海大道99号,,,,QingHuangDao
勇敢者转盘,https://you.ctrip.com/sight/qinhuangdao132/145355938.html?scene=online,秦皇岛市山海关区龙海大道148号乐岛公园海洋嘉年华内,,,,QingHuangDao
莲台,https://you.ctrip.com/sight/qinhuangdao132/145355925.html?scene=online,秦皇岛市山海关区五佛山国际生态旅游度假区角山景区内,,,,QingHuangDao
海盗城堡,https://you.ctrip.com/sight/qinhuangdao132/145346055.html?scene=online,秦皇岛市山海关区龙海大道148号乐岛公园戏水乐园内,,,,QingHuangDao
第29届奥林匹克运动会火炬接力秦皇岛站起点,https://you.ctrip.com/sight/qinhuangdao132/145336156.html?scene=online,秦皇岛市山海关区龙海大道1号老龙头景区内,,,,QingHuangDao
家庭乘筏滑道,https://you.ctrip.com/sight/qinhuangdao132/145316393.html?scene=online,秦皇岛市山海关区龙海大道148号乐岛公园戏水乐园内,,,,QingHuangDao
山海关老龙头景区-议事厅,https://you.ctrip.com/sight/qinhuangdao132/145314402.html?scene=online,秦皇岛市山海关区龙海大道1号老龙头景区守备署内,,,,QingHuangDao
文华阁,https://you.ctrip.com/sight/qinhuangdao132/145306565.html?scene=online,秦皇岛市山海关区龙海大道1号山海行宫内,,,,QingHuangDao
大慈院-放生池,https://you.ctrip.com/sight/qinhuangdao132/145306561.html?scene=online,秦皇岛市山海关区古城东北片区大悲院内,,,,QingHuangDao
神女浴日,https://you.ctrip.com/sight/qinhuangdao132/145296785.html?scene=online,秦皇岛市山海关区小陈庄北燕塞湖景区内,,,,QingHuangDao
抛圈套瓶,https://you.ctrip.com/sight/qinhuangdao132/145296697.html?scene=online,秦皇岛市山海关区龙海大道148号乐岛公园海洋嘉年华内,,,,QingHuangDao
安澜牌坊,https://you.ctrip.com/sight/qinhuangdao132/145296694.html?scene=online,秦皇岛市山海关区龙海大道1号老龙头景区海神庙内,,,,QingHuangDao
北元玄真堂,https://you.ctrip.com/sight/qinhuangdao132/145296689.html?scene=online,秦皇岛市山海关区南大街山海关古城景区,,,,QingHuangDao
真神殿,https://you.ctrip.com/sight/qinhuangdao132/145294586.html?scene=online,秦皇岛市山海关区古城西大街山海关总兵府景区十二生肖太岁神院内,,,,QingHuangDao
后九连,https://you.ctrip.com/sight/qinhuangdao132/145293143.html?scene=online,秦皇岛市山海关区角山路角山长城内,,,,QingHuangDao
王家大院-少爷房,https://you.ctrip.com/sight/qinhuangdao132/145293127.html?scene=online,秦皇岛市山海关区东三条29~31号王家大院内,,,,QingHuangDao
鼓亭,https://you.ctrip.com/sight/qinhuangdao132/145286773.html?scene=online,秦皇岛市山海关区西大街13号钟鼓楼内,,,,QingHuangDao
角山地质地貌景观区,https://you.ctrip.com/sight/qinhuangdao132/145286765.html?scene=online,秦皇岛市山海关区五佛山国际生态旅游度假区角山景区内,,,,QingHuangDao
戚继光兵阵陈列室,https://you.ctrip.com/sight/qinhuangdao132/145286758.html?scene=online,秦皇岛市山海关区龙海大道1号老龙头景区龙武营内,,,,QingHuangDao
长城平台,https://you.ctrip.com/sight/qinhuangdao132/145276872.html?scene=online,秦皇岛市山海关区角山路角山长城内,,,,QingHuangDao
拘禁所,https://you.ctrip.com/sight/qinhuangdao132/145276871.html?scene=online,秦皇岛市山海关区古城西大街山海关总兵府景区山海镇总兵府内,,,,QingHuangDao
鼓楼,https://you.ctrip.com/sight/qinhuangdao132/145274820.html?scene=online,秦皇岛市山海关区龙海大道1号老龙头景区海神庙内,,,,QingHuangDao
后寺湖山,https://you.ctrip.com/sight/qinhuangdao132/145268277.html?scene=online,秦皇岛市山海关区,,,,QingHuangDao
清风亭,https://you.ctrip.com/sight/qinhuangdao132/145267115.html?scene=online,秦皇岛市山海关区城西北7华里燕塞湖景区内,,,,QingHuangDao
豪华转马,https://you.ctrip.com/sight/qinhuangdao132/145267098.html?scene=online,秦皇岛市山海关区燕塞湖路燕塞湖景区游乐场内,,,,QingHuangDao
文殊殿,https://you.ctrip.com/sight/qinhuangdao132/145267064.html?scene=online,秦皇岛市山海关区古城东北片区大悲院内,,,,QingHuangDao
百总房,https://you.ctrip.com/sight/qinhuangdao132/145267029.html?scene=online,秦皇岛市山海关区龙海大道1号老龙头景区龙武营内,,,,QingHuangDao
伽蓝殿,https://you.ctrip.com/sight/qinhuangdao132/145267020.html?scene=online,秦皇岛市山海关区五佛山国际生态旅游度假区角山景区栖贤寺内,,,,QingHuangDao
海狮湾,https://you.ctrip.com/sight/qinhuangdao132/145267012.html?scene=online,秦皇岛市山海关区龙海大道148号乐岛公园海底总动员内,,,,QingHuangDao
卯兔戌狗太岁殿,https://you.ctrip.com/sight/qinhuangdao132/145257142.html?scene=online,秦皇岛市山海关区古城西大街山海关总兵府景区十二生肖太岁神院内,,,,QingHuangDao
瞭望地,https://you.ctrip.com/sight/qinhuangdao132/145255065.html?scene=online,秦皇岛市山海关区城南5公里处天下第一关景区内,,,,QingHuangDao
山海关离休活动室(中国铁路沈阳局集团有限公司),https://you.ctrip.com/sight/qinhuangdao132/145253635.html?scene=online,秦皇岛市山海关区南海道秦皇岛市山海关区铁路小学西侧约40米,,,,QingHuangDao
山海关老龙头景区-夯土炮台,https://you.ctrip.com/sight/qinhuangdao132/145247214.html?scene=online,秦皇岛市山海关区龙海大道1号老龙头景区内,,,,QingHuangDao
抄案房,https://you.ctrip.com/sight/qinhuangdao132/145247207.html?scene=online,秦皇岛市山海关区古城西大街山海关总兵府景区山海镇总兵府内,,,,QingHuangDao
北管子村史馆,https://you.ctrip.com/sight/qinhuangdao132/145247206.html?scene=online,河北省秦皇岛市山海关区第一关镇角山路,,,,QingHuangDao
山海关区古城保护发展中心,https://you.ctrip.com/sight/qinhuangdao132/145243782.html?scene=online,河北省秦皇岛市山海关区古城南大街32-5号,,,,QingHuangDao
广场鸽,https://you.ctrip.com/sight/qinhuangdao132/145237419.html?scene=online,秦皇岛市山海关区城西北7华里燕塞湖景区鸟语林内,,,,QingHuangDao
端凝阁,https://you.ctrip.com/sight/qinhuangdao132/145237358.html?scene=online,秦皇岛市山海关区龙海大道1号山海行宫内,,,,QingHuangDao
滑行龙,https://you.ctrip.com/sight/qinhuangdao132/145237345.html?scene=online,秦皇岛市山海关区龙海大道148号乐岛公园海洋嘉年华内,,,,QingHuangDao
桓侯祠,https://you.ctrip.com/sight/qinhuangdao132/145233792.html?scene=online,秦皇岛市山海关区五佛山国际生态旅游度假区角山景区内,,,,QingHuangDao
仪门游廊,https://you.ctrip.com/sight/qinhuangdao132/145233776.html?scene=online,秦皇岛市山海关区东大街1号天下第一关景区兵部分司内,,,,QingHuangDao
山船文化宫,https://you.ctrip.com/sight/qinhuangdao132/145227374.html?scene=online,秦皇岛市山海关区上海道山海关开发区里士满假日酒店(秦皇岛山海关店)西侧约130米,,,,QingHuangDao
图索房,https://you.ctrip.com/sight/qinhuangdao132/145227366.html?scene=online,秦皇岛市山海关区古城西大街山海关总兵府景区山海镇总兵府内,,,,QingHuangDao
肖显读书处,https://you.ctrip.com/sight/qinhuangdao132/145227352.html?scene=online,秦皇岛市山海关区五佛山国际生态旅游度假区角山景区栖贤寺内,,,,QingHuangDao
仪门,https://you.ctrip.com/sight/qinhuangdao132/145224006.html?scene=online,秦皇岛市山海关区古城西大街山海关总兵府景区山海镇总兵府内,,,,QingHuangDao
聊斋奇宫,https://you.ctrip.com/sight/qinhuangdao132/145217530.html?scene=online,秦皇岛市山海关区古城南大街20-6号四条包子,,,,QingHuangDao
咳嗽神殿,https://you.ctrip.com/sight/qinhuangdao132/145217527.html?scene=online,秦皇岛市山海关区五佛山国际生态旅游度假区角山景区栖贤寺内,,,,QingHuangDao
探春桥,https://you.ctrip.com/sight/qinhuangdao132/145215433.html?scene=online,秦皇岛市山海关区东水关街23号(近火车站)莲花湖公园内,,,,QingHuangDao
瓮城,https://you.ctrip.com/sight/qinhuangdao132/145207554.html?scene=online,秦皇岛市山海关区东大街1号天下第一关景区内,,,,QingHuangDao
石门天堑,https://you.ctrip.com/sight/qinhuangdao132/145207547.html?scene=online,秦皇岛市山海关区三道关村附近长寿山景区内,,,,QingHuangDao
药王岭,https://you.ctrip.com/sight/qinhuangdao132/145205525.html?scene=online,秦皇岛市山海关区三道关村附近长寿山景区内,,,,QingHuangDao
海景社区科技馆,https://you.ctrip.com/sight/qinhuangdao132/145204072.html?scene=online,秦皇岛市山海关区正安街南海花园东北侧,,,,QingHuangDao
甘露亭,https://you.ctrip.com/sight/qinhuangdao132/145204035.html?scene=online,秦皇岛市山海关区五佛山国际生态旅游度假区角山景区内,,,,QingHuangDao
自旋滑车,https://you.ctrip.com/sight/qinhuangdao132/145197613.html?scene=online,秦皇岛市山海关区龙海大道148号乐岛公园海洋嘉年华内,,,,QingHuangDao
心愿长廊,https://you.ctrip.com/sight/qinhuangdao132/145194319.html?scene=online,秦皇岛市山海关区古城东北片区大悲院内,,,,QingHuangDao
千石壁,https://you.ctrip.com/sight/qinhuangdao132/145194143.html?scene=online,秦皇岛市山海关区小陈庄北燕塞湖景区内,,,,QingHuangDao
灰松鼠,https://you.ctrip.com/sight/qinhuangdao132/145194122.html?scene=online,秦皇岛市山海关区燕塞湖路松鼠园内,,,,QingHuangDao
王家大院-书房,https://you.ctrip.com/sight/qinhuangdao132/145187686.html?scene=online,秦皇岛市山海关区东三条29~31号王家大院内,,,,QingHuangDao
范墨流香,https://you.ctrip.com/sight/qinhuangdao132/145187660.html?scene=online,秦皇岛市山海关区三道关村附近长寿山景区内,,,,QingHuangDao
婚俗馆,https://you.ctrip.com/sight/qinhuangdao132/145184296.html?scene=online,秦皇岛市山海关区东三条29~31号王家大院内,,,,QingHuangDao
明长城地理信息标石,https://you.ctrip.com/sight/qinhuangdao132/145177766.html?scene=online,秦皇岛市山海关区龙海大道1号老龙头景区内,,,,QingHuangDao
小潮河城市滨河公园,https://you.ctrip.com/sight/qinhuangdao132/145177760.html?scene=online,河北省秦皇岛市山海关区北京东道,,,,QingHuangDao
地藏殿,https://you.ctrip.com/sight/qinhuangdao132/145177741.html?scene=online,秦皇岛市山海关区古城东北片区大悲院内,,,,QingHuangDao
山海关老龙头景区-碑记,https://you.ctrip.com/sight/qinhuangdao132/145175607.html?scene=online,秦皇岛市山海关区龙海大道1号老龙头景区内,,,,QingHuangDao
小松林,https://you.ctrip.com/sight/qinhuangdao132/145174179.html?scene=online,秦皇岛市山海关区三道关村附近长寿山景区内,,,,QingHuangDao
山海关景区-御碑亭,https://you.ctrip.com/sight/qinhuangdao132/145174171.html?scene=online,秦皇岛市山海关区龙海大道1号老龙头景区内,,,,QingHuangDao
山海关老龙头景区-瓮城,https://you.ctrip.com/sight/qinhuangdao132/145167785.html?scene=online,秦皇岛市山海关区龙海大道1号老龙头景区内,,,,QingHuangDao
寿山之魂,https://you.ctrip.com/sight/qinhuangdao132/145167772.html?scene=online,秦皇岛市山海关区三道关村附近长寿山景区内,,,,QingHuangDao
三堂遗址保护区,https://you.ctrip.com/sight/qinhuangdao132/145166240.html?scene=online,秦皇岛市山海关区古城西大街山海关总兵府景区山海镇总兵府内,,,,QingHuangDao
般若三昧,https://you.ctrip.com/sight/qinhuangdao132/145165733.html?scene=online,秦皇岛市山海关区南大街山海关古城景区,,,,QingHuangDao
架阁库,https://you.ctrip.com/sight/qinhuangdao132/145164270.html?scene=online,秦皇岛市山海关区古城西大街山海关总兵府景区山海镇总兵府内,,,,QingHuangDao
水上挑战者,https://you.ctrip.com/sight/qinhuangdao132/145164258.html?scene=online,秦皇岛市山海关区龙海大道148号乐岛公园海底总动员内,,,,QingHuangDao
幽蝶溪,https://you.ctrip.com/sight/qinhuangdao132/145157831.html?scene=online,秦皇岛市山海关区三道关村附近长寿山景区内,,,,QingHuangDao
乐岛海洋王国-冰点店,https://you.ctrip.com/sight/qinhuangdao132/145157824.html?scene=online,秦皇岛市山海关区龙海大道148号乐岛公园内,,,,QingHuangDao
弘义阁,https://you.ctrip.com/sight/qinhuangdao132/145154236.html?scene=online,秦皇岛市山海关区龙海大道1号山海行宫内,,,,QingHuangDao
客堂,https://you.ctrip.com/sight/qinhuangdao132/145154234.html?scene=online,秦皇岛市山海关区古城东北片区大悲院内,,,,QingHuangDao
旱门关,https://you.ctrip.com/sight/qinhuangdao132/145154222.html?scene=online,秦皇岛市山海关区角山路角山长城内,,,,QingHuangDao
乘黄,https://you.ctrip.com/sight/qinhuangdao132/145147833.html?scene=online,秦皇岛市山海关区龙海大道1号老龙头景区龙王庙内,,,,QingHuangDao
大圣驾到儿童健康调理中心(老龙头路店),https://you.ctrip.com/sight/qinhuangdao132/145147813.html?scene=online,河北省秦皇岛市山海关区老龙头路244-6号,,,,QingHuangDao
服远楼,https://you.ctrip.com/sight/qinhuangdao132/145147809.html?scene=online,秦皇岛市山海关区南大街5-1号山海关古城内,,,,QingHuangDao
逍遥桥,https://you.ctrip.com/sight/qinhuangdao132/145147805.html?scene=online,秦皇岛市山海关区三道关村附近长寿山景区内,,,,QingHuangDao
凤凰山,https://you.ctrip.com/sight/qinhuangdao132/145147804.html?scene=online,秦皇岛市山海关区城东约6公里的望夫石村后山岗上孟姜女庙景区内,,,,QingHuangDao
山海关老龙头景区-文物展室,https://you.ctrip.com/sight/qinhuangdao132/145144311.html?scene=online,秦皇岛市山海关区龙海大道1号老龙头景区把总署内,,,,QingHuangDao
观音殿,https://you.ctrip.com/sight/qinhuangdao132/145137861.html?scene=online,秦皇岛市山海关区城东约6公里的望夫石村后山岗上孟姜女庙景区贞女祠内,,,,QingHuangDao
畅音阁,https://you.ctrip.com/sight/qinhuangdao132/145137858.html?scene=online,秦皇岛市山海关区龙海大道1号山海行宫内,,,,QingHuangDao
共工亭,https://you.ctrip.com/sight/qinhuangdao132/145137854.html?scene=online,河北省秦皇岛市山海关区五佛山国际生态旅游度假区角山景区内,,,,QingHuangDao
山中月镜,https://you.ctrip.com/sight/qinhuangdao132/145127898.html?scene=online,秦皇岛市山海关区城西北7华里燕塞湖景区内,,,,QingHuangDao
山海关区群众文化艺术活动协会,https://you.ctrip.com/sight/qinhuangdao132/145125363.html?scene=online,秦皇岛市山海关区教军场路天成宾馆(秦皇岛山海关店)东南侧约70米,,,,QingHuangDao
南海口关,https://you.ctrip.com/sight/qinhuangdao132/145125348.html?scene=online,秦皇岛市山海关区龙海大道1号老龙头景区内,,,,QingHuangDao
悬洞窥天,https://you.ctrip.com/sight/qinhuangdao132/145125342.html?scene=online,秦皇岛市山海关区三道关村附近长寿山景区内,,,,QingHuangDao
五福壁,https://you.ctrip.com/sight/qinhuangdao132/145123874.html?scene=online,秦皇岛市山海关区古城东北片区大悲院内,,,,QingHuangDao
钟楼,https://you.ctrip.com/sight/qinhuangdao132/145123867.html?scene=online,秦皇岛市山海关区龙海大道1号老龙头景区海神庙内,,,,QingHuangDao
赤麻鸭,https://you.ctrip.com/sight/qinhuangdao132/145117844.html?scene=online,秦皇岛市山海关区城西北7华里燕塞湖景区鸟语林内,,,,QingHuangDao
骆驼峰,https://you.ctrip.com/sight/qinhuangdao132/145117777.html?scene=online,秦皇岛市山海关区城西北7华里燕塞湖景区内,,,,QingHuangDao
龙马,https://you.ctrip.com/sight/qinhuangdao132/145117775.html?scene=online,秦皇岛市山海关区龙海大道1号老龙头景区龙王庙内,,,,QingHuangDao
神威大将军炮,https://you.ctrip.com/sight/qinhuangdao132/145117771.html?scene=online,秦皇岛市山海关区南大街5-1号山海关古城内,,,,QingHuangDao
吟荷桥,https://you.ctrip.com/sight/qinhuangdao132/145115378.html?scene=online,秦皇岛市山海关区东水关街23号(近火车站)莲花湖公园内,,,,QingHuangDao
祥瑞潭,https://you.ctrip.com/sight/qinhuangdao132/145109014.html?scene=online,秦皇岛市山海关区古城东北片区大悲院内,,,,QingHuangDao
山海关区图书馆,https://you.ctrip.com/sight/qinhuangdao132/144104098.html?scene=online,河北省秦皇岛市山海关区西顺城街3-2号,,,,QingHuangDao
潮河,https://you.ctrip.com/sight/qinhuangdao132/144103957.html?scene=online,河北省秦皇岛市山海关区,,,,QingHuangDao
玄阳洞,https://you.ctrip.com/sight/qinhuangdao132/144103897.html?scene=online,河北省秦皇岛市山海关区长寿山路,,,,QingHuangDao
福寿园,https://you.ctrip.com/sight/qinhuangdao132/144103792.html?scene=online,河北省秦皇岛市山海关区通棉路东50米,,,,QingHuangDao
秦皇岛市山海关区基督教福音堂,https://you.ctrip.com/sight/qinhuangdao132/144103655.html?scene=online,秦皇岛市山海关区西关大街78号,,,,QingHuangDao
干石河,https://you.ctrip.com/sight/qinhuangdao132/144103638.html?scene=online,河北省秦皇岛市山海关区,,,,QingHuangDao
祥蔼博桑,https://you.ctrip.com/sight/qinhuangdao132/143756733.html?scene=online,秦皇岛市山海关区关城西路山海关古城景区,,,,QingHuangDao
十二生肖太岁神院,https://you.ctrip.com/sight/qinhuangdao132/143743522.html?scene=online,河北省秦皇岛市山海关区西大街55号,,,,QingHuangDao
临闾楼,https://you.ctrip.com/sight/qinhuangdao132/143740740.html?scene=online,秦皇岛市山海关区黄家胡同与墨水池胡同交叉路口往东北约250米,,,,QingHuangDao
顺成儿童乐园,https://you.ctrip.com/sight/qinhuangdao132/143738965.html?scene=online,河北省秦皇岛市山海关区顺城商厦民乐医药店南侧上楼,,,,QingHuangDao
首山二郎庙风景区,https://you.ctrip.com/sight/qinhuangdao132/143734324.html?scene=online,河北省秦皇岛市山海关区首山二郎庙风景区(燕塞湖景区东南),,,,QingHuangDao
薰风和熙,https://you.ctrip.com/sight/qinhuangdao132/143729533.html?scene=online,秦皇岛市山海关区第一关路山海关风景区-天下第一关景区,,,,QingHuangDao
跆风搏击俱乐部,https://you.ctrip.com/sight/qinhuangdao132/143714420.html?scene=online,河北省秦皇岛市山海关区港山大街博维龙庭小区1号楼,,,,QingHuangDao
宗教文化馆,https://you.ctrip.com/sight/qinhuangdao132/143711083.html?scene=online,秦皇岛市山海关区东三条29~31号王家大院内,,,,QingHuangDao
山海梵禅(总店),https://you.ctrip.com/sight/qinhuangdao132/143697132.html?scene=online,河北省秦皇岛市山海关区教军场路兴华商城4号楼,,,,QingHuangDao
英皇国际马术俱乐部,https://you.ctrip.com/sight/qinhuangdao132/143696447.html?scene=online,河北省秦皇岛市山海关区石河镇龙海大道161号,,,,QingHuangDao
慈愍寺,https://you.ctrip.com/sight/qinhuangdao132/134078586.html?scene=online,河北省秦皇岛市山海关区西大街山海关古城景区,,,,QingHuangDao
双文井,https://you.ctrip.com/sight/qinhuangdao132/134071366.html?scene=online,秦皇岛市山海关区钟鼓楼旁,,,,QingHuangDao
榆关抗战纪念碑,https://you.ctrip.com/sight/qinhuangdao132/134071256.html?scene=online,河北省秦皇岛市山海关区关城南路57号,,,,QingHuangDao
威远城遗址,https://you.ctrip.com/sight/qinhuangdao132/112654870.html?scene=online,河北省秦皇岛市山海关区乔家沟村,,,,QingHuangDao
承恩驿,https://you.ctrip.com/sight/qinhuangdao132/112649444.html?scene=online,秦皇岛市山海关区北马道秦皇岛山海假日酒店西南门南侧约80米,,,,QingHuangDao
鑫华乔氏台球会所,https://you.ctrip.com/sight/qinhuangdao132/79996656.html?scene=online,河北省秦皇岛市山海关区110号兴华商城1号楼3楼,13333283201,,,QingHuangDao
车友来汽车运动公园,https://you.ctrip.com/sight/qinhuangdao132/5612349.html?scene=online,河北省秦皇岛市山海关区龙海大道169号,13903352010,,,QingHuangDao
榆关广场,https://you.ctrip.com/sight/qinhuangdao132/4616769.html?scene=online,河北省秦皇岛市山海关区关城西路38号,,,,QingHuangDao
爱琴海音乐广场,https://you.ctrip.com/sight/qinhuangdao132/4616767.html?scene=online,河北秦皇岛市山海关区龙海大道148号,,,,QingHuangDao
湿地游园,https://you.ctrip.com/sight/qinhuangdao132/4616342.html?scene=online,河北省秦皇岛市山海关区城西北7华里燕塞湖景区内,,,,QingHuangDao
山西会馆,https://you.ctrip.com/sight/qinhuangdao132/4616253.html?scene=online,秦皇岛市山海关区东大街9号,,,,QingHuangDao
辰龙酉鸡太岁殿,https://you.ctrip.com/sight/qinhuangdao132/4616246.html?scene=online,秦皇岛市山海关区古城西大街山海关总兵府景区十二生肖太岁神院内,,,,QingHuangDao
山海关老龙头景区-民间艺术展,https://you.ctrip.com/sight/qinhuangdao132/4616241.html?scene=online,秦皇岛市山海关区龙海大道1号老龙头景区把总署内,,,,QingHuangDao
国家方志馆秦皇岛公馆,https://you.ctrip.com/sight/qinhuangdao132/4616234.html?scene=online,河北省秦皇岛市山海关区东大街8号,,,,QingHuangDao
关帝庙,https://you.ctrip.com/sight/qinhuangdao132/4616226.html?scene=online,河北省秦皇岛市山海关区西大街55号,,,,QingHuangDao
旋靥潭,https://you.ctrip.com/sight/qinhuangdao132/1675457.html?scene=online,秦皇岛市山海关区三道关村附近长寿山景区内,,,,QingHuangDao
寿字碑林,https://you.ctrip.com/sight/qinhuangdao132/1675418.html?scene=online,秦皇岛市山海关区三道关村附近长寿山景区内,,,,QingHuangDao
同赢替替战士基地,https://you.ctrip.com/sight/qinhuangdao132/1408980.html?scene=online,秦皇岛市山海关区替替战士基地(乐岛斜对面),,,,QingHuangDao
艾尚多肉植物园,https://you.ctrip.com/sight/qinhuangdao132/145395337.html?scene=online,河北省秦皇岛市山海关区沟渠寨村,,,,QingHuangDao
幽闲谷,https://you.ctrip.com/sight/qinhuangdao132/145435493.html?scene=online,秦皇岛市山海关区三道关村附近长寿山景区内,,,,QingHuangDao
铺房,https://you.ctrip.com/sight/qinhuangdao132/145464951.html?scene=online,秦皇岛市山海关区角山路角山长城内,,,,QingHuangDao
观音殿,https://you.ctrip.com/sight/qinhuangdao132/145491309.html?scene=online,秦皇岛市山海关区古城东北片区大悲院内,,,,QingHuangDao
李时珍石窟,https://you.ctrip.com/sight/qinhuangdao132/145520659.html?scene=online,秦皇岛市山海关区三道关村附近长寿山景区内,,,,QingHuangDao
山海关老龙头景区-天开海岳碑刻,https://you.ctrip.com/sight/qinhuangdao132/145543859.html?scene=online,秦皇岛市山海关区龙海大道1号老龙头景区内,,,,QingHuangDao
大小灵塔,https://you.ctrip.com/sight/qinhuangdao132/145553726.html?scene=online,秦皇岛市山海关区小陈庄北燕塞湖景区内,,,,QingHuangDao
关帝庙,https://you.ctrip.com/sight/qinhuangdao132/145580996.html?scene=online,秦皇岛市山海关区三道关村附近长寿山景区内,,,,QingHuangDao
勤求,https://you.ctrip.com/sight/qinhuangdao132/145599179.html?scene=online,秦皇岛市山海关区三道关村附近长寿山景区内,,,,QingHuangDao
黄牛山,https://you.ctrip.com/sight/qinhuangdao132/145641744.html?scene=online,秦皇岛市山海关区三道关村附近长寿山景区内,,,,QingHuangDao
念佛堂,https://you.ctrip.com/sight/qinhuangdao132/145657822.html?scene=online,秦皇岛市山海关区古城东北片区大悲院内,,,,QingHuangDao
榆峰阁,https://you.ctrip.com/sight/qinhuangdao132/145703149.html?scene=online,秦皇岛市山海关区东大街1号天下第一关景区兵部分司内,,,,QingHuangDao
孟宅,https://you.ctrip.com/sight/qinhuangdao132/145716669.html?scene=online,秦皇岛市山海关区城东约6公里的望夫石村后山岗上孟姜女庙景区内,,,,QingHuangDao
白鹭岛龙头帆船俱乐部,https://you.ctrip.com/sight/qinhuangdao132/145797293.html?scene=online,河北省秦皇岛市山海关区天福中路1号,,,,QingHuangDao
西关浴池,https://you.ctrip.com/sight/qinhuangdao132/145882729.html?scene=online,河北省秦皇岛市山海关区西关大街98号,,,,QingHuangDao
乔氏台球会所(石河路店),https://you.ctrip.com/sight/qinhuangdao132/145946522.html?scene=online,河北省秦皇岛市山海关区石河路77号兴明家具广场院内右侧玻璃门上二楼,,,,QingHuangDao
时代PARTY KTV,https://you.ctrip.com/sight/qinhuangdao132/145986165.html?scene=online,秦皇岛市山海关区南海西路147号,,,,QingHuangDao
禧尚羽毛球乒乓球,https://you.ctrip.com/sight/qinhuangdao132/145986159.html?scene=online,秦皇岛市山海关区秦山路环城家俱建材西北侧约80米,,,,QingHuangDao
望洋楼广场,https://you.ctrip.com/sight/qinhuangdao132/145972174.html?scene=online,河北省秦皇岛市山海关区关城南路85号,,,,QingHuangDao
山海关区沐洺洗浴中心,https://you.ctrip.com/sight/qinhuangdao132/145966444.html?scene=online,秦皇岛市山海关区河北省农村信用社(陈庄信用社)东南侧约220米,,,,QingHuangDao
山船浴池,https://you.ctrip.com/sight/qinhuangdao132/145966413.html?scene=online,秦皇岛市山海关区船厂路山船幼儿园东侧约70米,,,,QingHuangDao
秦皇岛市雏鹰篮球俱乐部,https://you.ctrip.com/sight/qinhuangdao132/145962225.html?scene=online,山海关区上海道77号院内,,,,QingHuangDao
夏威夷海滩,https://you.ctrip.com/sight/qinhuangdao132/145956503.html?scene=online,秦皇岛市山海关区龙海大道148号乐岛公园内,,,,QingHuangDao
93桌球俱乐部,https://you.ctrip.com/sight/qinhuangdao132/145956436.html?scene=online,河北省秦皇岛市山海关区古御路93号,,,,QingHuangDao
尚水洗浴(站西街店),https://you.ctrip.com/sight/qinhuangdao132/145946523.html?scene=online,秦皇岛市山海关区站西街山海关第一行车公寓西南侧约80米,,,,QingHuangDao
天水沐浴会馆,https://you.ctrip.com/sight/qinhuangdao132/145942283.html?scene=online,河北省秦皇岛市山海关区站西街北（山海关第一行车公寓西南侧约30米）,,,,QingHuangDao
山海关区晓刚信鸽俱乐部,https://you.ctrip.com/sight/qinhuangdao132/145936568.html?scene=online,秦皇岛市山海关区南马道山海关古城景区,,,,QingHuangDao
西河洗浴,https://you.ctrip.com/sight/qinhuangdao132/145926644.html?scene=online,河北省秦皇岛市山海关区西关综合市场西侧正东方向21米,,,,QingHuangDao
山海关乔氏台球文化体育产业园(二期),https://you.ctrip.com/sight/qinhuangdao132/145916748.html?scene=online,秦皇岛市山海关区石河路左岸香颂西南侧约60米,,,,QingHuangDao
惠友台球俱乐部,https://you.ctrip.com/sight/qinhuangdao132/145894445.html?scene=online,秦皇岛市山海关区兴隆街兴隆小学东侧约60米,,,,QingHuangDao
龙泉山浴池,https://you.ctrip.com/sight/qinhuangdao132/145892658.html?scene=online,秦皇岛市山海关区关城南路山海关人民医院404分院北侧约90米,,,,QingHuangDao
尚水洗浴(华粤小区店),https://you.ctrip.com/sight/qinhuangdao132/145886904.html?scene=online,秦皇岛市山海关区港山大街建安小区东南侧约100米,,,,QingHuangDao
洗意·精致洗护(南关大街店),https://you.ctrip.com/sight/qinhuangdao132/145886888.html?scene=online,河北省秦皇岛市山海关区兴华中心商务区1号楼,,,,QingHuangDao
蓝希篮球俱乐部,https://you.ctrip.com/sight/qinhuangdao132/145876957.html?scene=online,河北省秦皇岛市山海关区关城西路34号,,,,QingHuangDao
风尚台球,https://you.ctrip.com/sight/qinhuangdao132/145876949.html?scene=online,秦皇岛市山海关区船厂路山船幼儿园东南侧约130米,,,,QingHuangDao
唐子寨浴池,https://you.ctrip.com/sight/qinhuangdao132/145867066.html?scene=online,河北省秦皇岛市山海关区,,,,QingHuangDao
尚水洗浴(火车站店),https://you.ctrip.com/sight/qinhuangdao132/145842901.html?scene=online,秦皇岛市山海关区莲花湖商住小区北区24号,,,,QingHuangDao
园霖泉浴池,https://you.ctrip.com/sight/qinhuangdao132/145837083.html?scene=online,秦皇岛市山海关区关城南路山海关人民医院404分院北侧约70米,,,,QingHuangDao
山羽运动馆,https://you.ctrip.com/sight/qinhuangdao132/145827151.html?scene=online,秦皇岛市山海关区高建庄路与秦山路交叉路口往西约200米,,,,QingHuangDao
九河大众洗浴有限公司,https://you.ctrip.com/sight/qinhuangdao132/145817149.html?scene=online,秦皇岛市山海关区南大街兴华小区(货场前街)西南侧,,,,QingHuangDao
漫水庭养生洗浴,https://you.ctrip.com/sight/qinhuangdao132/145817148.html?scene=online,河北省秦皇岛市山海关区秦山东路十五号孟家店,,,,QingHuangDao
超盛台球俱乐部,https://you.ctrip.com/sight/qinhuangdao132/145797307.html?scene=online,秦皇岛市山海关区,,,,QingHuangDao
边墙子浴池,https://you.ctrip.com/sight/qinhuangdao132/145797239.html?scene=online,河北省秦皇岛市山海关区边墙子村,,,,QingHuangDao
山海关久久草莓采摘园,https://you.ctrip.com/sight/qinhuangdao132/145787296.html?scene=online,河北省秦皇岛市山海关区燕塞湖路,,,,QingHuangDao
乔氏台球(御山路店),https://you.ctrip.com/sight/qinhuangdao132/145777232.html?scene=online,秦皇岛市山海关区御山路山海人家小区西南侧,,,,QingHuangDao
恒温游泳中心,https://you.ctrip.com/sight/qinhuangdao132/145757243.html?scene=online,秦皇岛市山海关区平安里街平安东里,,,,QingHuangDao
爱心浴池,https://you.ctrip.com/sight/qinhuangdao132/145757240.html?scene=online,河北省秦皇岛市山海关区山开一号路与滨河路交叉口南520米,,,,QingHuangDao
榆关公园,https://you.ctrip.com/sight/qinhuangdao132/145722109.html?scene=online,河北省秦皇岛市山海关区关城南路与关城西路交叉口向东100米,,,,QingHuangDao
鸵鸟,https://you.ctrip.com/sight/qinhuangdao132/145716746.html?scene=online,秦皇岛市山海关区城西北7华里燕塞湖景区鸟语林内,,,,QingHuangDao
清泉浴池(工人街店),https://you.ctrip.com/sight/qinhuangdao132/145716649.html?scene=online,秦皇岛市山海关区桥梁厂工人新村,,,,QingHuangDao
山海关望海度假村(老龙头店),https://you.ctrip.com/sight/qinhuangdao132/145712158.html?scene=online,河北省秦皇岛市山海关区龙海大道望海路1号,,,,QingHuangDao
关帝庙,https://you.ctrip.com/sight/qinhuangdao132/145710698.html?scene=online,秦皇岛市山海关区龙海大道1号老龙头景区龙武营内,,,,QingHuangDao
夜猫台球俱乐部,https://you.ctrip.com/sight/qinhuangdao132/145710691.html?scene=online,河北省秦皇岛市山海关区南关大街6号兴华商城2号楼3-D-4室,,,,QingHuangDao
徐达将台,https://you.ctrip.com/sight/qinhuangdao132/145706663.html?scene=online,秦皇岛市山海关区龙海大道1号老龙头景区内,,,,QingHuangDao
山海关城楼,https://you.ctrip.com/sight/qinhuangdao132/145706642.html?scene=online,河北省秦皇岛市山海关区东大街1号天下第一关景区,,,,QingHuangDao
好妈妈母婴百货(山海关南海花园店),https://you.ctrip.com/sight/qinhuangdao132/145706627.html?scene=online,老龙头路115-11门市一层,,,,QingHuangDao
承发房,https://you.ctrip.com/sight/qinhuangdao132/145703570.html?scene=online,秦皇岛市山海关区古城西大街山海关总兵府景区山海镇总兵府内,,,,QingHuangDao
总兵祠,https://you.ctrip.com/sight/qinhuangdao132/145700236.html?scene=online,秦皇岛市山海关区古城西大街山海关总兵府景区山海镇总兵府内,,,,QingHuangDao
机略功成,https://you.ctrip.com/sight/qinhuangdao132/145690544.html?scene=online,秦皇岛市山海关区古城西大街山海关总兵府景区山海镇总兵府内,,,,QingHuangDao
山海关文体中心,https://you.ctrip.com/sight/qinhuangdao132/145690542.html?scene=online,秦皇岛市山海关区澄海大道与龙海大道交叉路口往东约170米,,,,QingHuangDao
奇幻地下溶洞,https://you.ctrip.com/sight/qinhuangdao132/145680737.html?scene=online,秦皇岛市山海关区古城西大街山海关总兵府景区龙城帝国广场内,,,,QingHuangDao
长命仙子台,https://you.ctrip.com/sight/qinhuangdao132/145678753.html?scene=online,秦皇岛市山海关区古城西大街山海关总兵府景区山海镇总兵府内,,,,QingHuangDao
皮影馆,https://you.ctrip.com/sight/qinhuangdao132/145677335.html?scene=online,秦皇岛市山海关区东三条29~31号王家大院内,,,,QingHuangDao
强体台,https://you.ctrip.com/sight/qinhuangdao132/145671042.html?scene=online,秦皇岛市山海关区古城西大街山海关总兵府景区山海镇总兵府内,,,,QingHuangDao
吉祥平安钟,https://you.ctrip.com/sight/qinhuangdao132/145657816.html?scene=online,秦皇岛市山海关区三道关村附近长寿山景区内,,,,QingHuangDao
愤怒的小鸟,https://you.ctrip.com/sight/qinhuangdao132/145657803.html?scene=online,秦皇岛市山海关区龙海大道148号乐岛公园海洋嘉年华内,,,,QingHuangDao
滴水溶洞,https://you.ctrip.com/sight/qinhuangdao132/145651514.html?scene=online,秦皇岛市山海关区龙海大道148号乐岛公园戏水乐园内,,,,QingHuangDao
迷你游乐园,https://you.ctrip.com/sight/qinhuangdao132/145651509.html?scene=online,秦皇岛市山海关区东水关街23号(近火车站)莲花湖公园内,,,,QingHuangDao
望海观音殿,https://you.ctrip.com/sight/qinhuangdao132/145651506.html?scene=online,秦皇岛市山海关区五佛山国际生态旅游度假区角山景区栖贤寺内,,,,QingHuangDao
南翼长城,https://you.ctrip.com/sight/qinhuangdao132/145648096.html?scene=online,秦皇岛市山海关区城南5公里处天下第一关景区内,,,,QingHuangDao
洞山剑峰,https://you.ctrip.com/sight/qinhuangdao132/145648076.html?scene=online,秦皇岛市山海关区城西北7华里燕塞湖景区内,,,,QingHuangDao
乾隆御碑,https://you.ctrip.com/sight/qinhuangdao132/145648067.html?scene=online,秦皇岛市山海关区龙海大道1号老龙头景区内,,,,QingHuangDao
百家姓家训馆,https://you.ctrip.com/sight/qinhuangdao132/145641745.html?scene=online,秦皇岛市山海关区东三条29~31号王家大院内,,,,QingHuangDao
古神水井,https://you.ctrip.com/sight/qinhuangdao132/145631971.html?scene=online,秦皇岛市山海关区五佛山国际生态旅游度假区角山景区栖贤寺内,,,,QingHuangDao
钟粹阁,https://you.ctrip.com/sight/qinhuangdao132/145631962.html?scene=online,秦皇岛市山海关区龙海大道1号山海行宫内,,,,QingHuangDao
兵部分司-书房,https://you.ctrip.com/sight/qinhuangdao132/145628427.html?scene=online,秦皇岛市山海关区东大街1号天下第一关景区兵部分司内,,,,QingHuangDao
译字所,https://you.ctrip.com/sight/qinhuangdao132/145622158.html?scene=online,秦皇岛市山海关区古城西大街山海关总兵府景区山海镇总兵府内,,,,QingHuangDao
退休职工活动室,https://you.ctrip.com/sight/qinhuangdao132/145622149.html?scene=online,秦皇岛市山海关区南苑西路秦皇岛市山海关人民医院,,,,QingHuangDao
卧云桥,https://you.ctrip.com/sight/qinhuangdao132/145612420.html?scene=online,秦皇岛市山海关区东水关街23号(近火车站)莲花湖公园内,,,,QingHuangDao
博顺帆船,https://you.ctrip.com/sight/qinhuangdao132/145602660.html?scene=online,河北省秦皇岛市山海关区G228(龙海大道),,,,QingHuangDao
三十六计,https://you.ctrip.com/sight/qinhuangdao132/145602599.html?scene=online,秦皇岛市山海关区古城西大街山海关总兵府景区山海镇总兵府内,,,,QingHuangDao
魁星阁,https://you.ctrip.com/sight/qinhuangdao132/145600563.html?scene=online,秦皇岛市山海关区五佛山国际生态旅游度假区角山景区栖贤寺内,,,,QingHuangDao
大悲阁,https://you.ctrip.com/sight/qinhuangdao132/145599119.html?scene=online,秦皇岛市山海关区古城东北片区大悲院内,,,,QingHuangDao
达摩殿,https://you.ctrip.com/sight/qinhuangdao132/145592761.html?scene=online,秦皇岛市山海关区五佛山国际生态旅游度假区角山景区栖贤寺内,,,,QingHuangDao
百二山河,https://you.ctrip.com/sight/qinhuangdao132/145589366.html?scene=online,秦皇岛市山海关区三道关村附近长寿山景区内,,,,QingHuangDao
禄饷阁,https://you.ctrip.com/sight/qinhuangdao132/145589360.html?scene=online,秦皇岛市山海关区古城西大街山海关总兵府景区山海镇总兵府内,,,,QingHuangDao
聚友网咖(站前路店),https://you.ctrip.com/sight/qinhuangdao132/145583034.html?scene=online,河北省秦皇岛市山海关区站前路48号,,,,QingHuangDao
母女峰,https://you.ctrip.com/sight/qinhuangdao132/145583031.html?scene=online,秦皇岛市山海关区城西北7华里燕塞湖景区内,,,,QingHuangDao
利尔春天房车露营地,https://you.ctrip.com/sight/qinhuangdao132/145583023.html?scene=online,秦皇岛市山海关区G102角山长城,,,,QingHuangDao
国柱书馆,https://you.ctrip.com/sight/qinhuangdao132/145583015.html?scene=online,秦皇岛市山海关区正安街南海花园,,,,QingHuangDao
山海关老龙头景区-法制铁炮,https://you.ctrip.com/sight/qinhuangdao132/145583011.html?scene=online,秦皇岛市山海关区龙海大道1号老龙头景区内,,,,QingHuangDao
张仲景石窟,https://you.ctrip.com/sight/qinhuangdao132/145579512.html?scene=online,秦皇岛市山海关区三道关村附近长寿山景区内,,,,QingHuangDao
椽房,https://you.ctrip.com/sight/qinhuangdao132/145573226.html?scene=online,秦皇岛市山海关区东大街1号天下第一关景区兵部分司内,,,,QingHuangDao
长寿河,https://you.ctrip.com/sight/qinhuangdao132/145573211.html?scene=online,秦皇岛市山海关区三道关村附近长寿山景区内,,,,QingHuangDao
戏水乐园,https://you.ctrip.com/sight/qinhuangdao132/145573209.html?scene=online,秦皇岛市山海关区龙海大道148号乐岛公园内,,,,QingHuangDao
兰亭书舍山海关研究院,https://you.ctrip.com/sight/qinhuangdao132/145571716.html?scene=online,秦皇岛市山海关区东大街山海关风景区天下第一关景区西门西侧约40米,,,,QingHuangDao
石河鏖战,https://you.ctrip.com/sight/qinhuangdao132/145571152.html?scene=online,秦皇岛市山海关区西大街秦皇岛廉政文化研究会旁边甲申史鉴馆内,,,,QingHuangDao
浩水烟波蜡像馆,https://you.ctrip.com/sight/qinhuangdao132/145569720.html?scene=online,秦皇岛市山海关区南大街山海关古城景区,,,,QingHuangDao
崇文阁,https://you.ctrip.com/sight/qinhuangdao132/145563448.html?scene=online,秦皇岛市山海关区古城西大街山海关总兵府景区山海镇总兵府内,,,,QingHuangDao
二堂遗址保护区,https://you.ctrip.com/sight/qinhuangdao132/145559988.html?scene=online,秦皇岛市山海关区古城西大街山海关总兵府景区山海镇总兵府内,,,,QingHuangDao
山海关风景区-箭楼,https://you.ctrip.com/sight/qinhuangdao132/145553677.html?scene=online,秦皇岛市山海关区古城东大街1号,,,,QingHuangDao
秦皇岛市金峰园景区,https://you.ctrip.com/sight/qinhuangdao132/145553672.html?scene=online,河北省秦皇岛市山海关区孟姜镇G102(关城北路),,,,QingHuangDao
李自成雕像,https://you.ctrip.com/sight/qinhuangdao132/145553661.html?scene=online,秦皇岛市山海关区五佛山国际生态旅游度假区角山景区内,,,,QingHuangDao
打沙包,https://you.ctrip.com/sight/qinhuangdao132/145553656.html?scene=online,秦皇岛市山海关区龙海大道148号乐岛公园海洋嘉年华内,,,,QingHuangDao
修葺所,https://you.ctrip.com/sight/qinhuangdao132/145552110.html?scene=online,秦皇岛市山海关区古城西大街山海关总兵府景区山海镇总兵府内,,,,QingHuangDao
任重道远,https://you.ctrip.com/sight/qinhuangdao132/145551604.html?scene=online,秦皇岛市山海关区西大街秦皇岛廉政文化研究会旁边甲申史鉴馆内,,,,QingHuangDao
秦皇岛天健游乐园,https://you.ctrip.com/sight/qinhuangdao132/145550240.html?scene=online,河北省秦皇岛市山海关区龙海大道北150米,,,,QingHuangDao
镇东威远,https://you.ctrip.com/sight/qinhuangdao132/145543873.html?scene=online,秦皇岛市山海关区古城西大街山海关总兵府景区内,,,,QingHuangDao
华夏飞碟,https://you.ctrip.com/sight/qinhuangdao132/145541826.html?scene=online,秦皇岛市山海关区龙海大道148号乐岛公园海洋嘉年华内,,,,QingHuangDao
问到王家,https://you.ctrip.com/sight/qinhuangdao132/145541825.html?scene=online,秦皇岛市山海关区东三条29~31号王家大院内,,,,QingHuangDao
空中飞舞,https://you.ctrip.com/sight/qinhuangdao132/145540425.html?scene=online,河北省秦皇岛市山海关区石河镇龙海大道148号乐岛公园海洋嘉年华内,,,,QingHuangDao
军粮阁,https://you.ctrip.com/sight/qinhuangdao132/145540410.html?scene=online,秦皇岛市山海关区古城西大街山海关总兵府景区山海镇总兵府内,,,,QingHuangDao
迷你穿梭,https://you.ctrip.com/sight/qinhuangdao132/145533987.html?scene=online,秦皇岛市山海关区龙海大道148号乐岛公园海洋嘉年华内,,,,QingHuangDao
海盗船,https://you.ctrip.com/sight/qinhuangdao132/145530548.html?scene=online,秦皇岛市山海关区龙海大道148号乐岛公园海底总动员内,,,,QingHuangDao
幸运锣鼓,https://you.ctrip.com/sight/qinhuangdao132/145524222.html?scene=online,秦皇岛市山海关区古城西大街山海关总兵府景区山海镇总兵府内,,,,QingHuangDao
山海关老龙头景区-靖卤台,https://you.ctrip.com/sight/qinhuangdao132/145524221.html?scene=online,秦皇岛市山海关区龙海大道1号老龙头景区内,,,,QingHuangDao
炮火连天,https://you.ctrip.com/sight/qinhuangdao132/145524219.html?scene=online,秦皇岛市山海关区龙海大道148号乐岛公园海洋嘉年华内,,,,QingHuangDao
角山长城-纪念林,https://you.ctrip.com/sight/qinhuangdao132/145514447.html?scene=online,秦皇岛市山海关区角山路角山长城内,,,,QingHuangDao
王家大院-客厅,https://you.ctrip.com/sight/qinhuangdao132/145514441.html?scene=online,秦皇岛市山海关区东三条29~31号王家大院内,,,,QingHuangDao
漂移碰碰车,https://you.ctrip.com/sight/qinhuangdao132/145512450.html?scene=online,秦皇岛市山海关区龙海大道1号老龙头景区内,,,,QingHuangDao
山海关老龙头景区-一勺之多,https://you.ctrip.com/sight/qinhuangdao132/145510992.html?scene=online,秦皇岛市山海关区龙海大道1号老龙头景区内,,,,QingHuangDao
石河景观带,https://you.ctrip.com/sight/qinhuangdao132/145504680.html?scene=online,秦皇岛市山海关区石河路左岸香颂南侧约70米,,,,QingHuangDao
子午洞天,https://you.ctrip.com/sight/qinhuangdao132/145504611.html?scene=online,秦皇岛市山海关区三道关村附近长寿山景区内,,,,QingHuangDao
兵器陈列室,https://you.ctrip.com/sight/qinhuangdao132/145504608.html?scene=online,秦皇岛市山海关区龙海大道1号老龙头景区龙武营内,,,,QingHuangDao
山海关景区-显功祠,https://you.ctrip.com/sight/qinhuangdao132/145494841.html?scene=online,秦皇岛市山海关区龙海大道1号老龙头景区内,,,,QingHuangDao
宽滑道,https://you.ctrip.com/sight/qinhuangdao132/145491310.html?scene=online,秦皇岛市山海关区龙海大道148号乐岛公园戏水乐园内,,,,QingHuangDao
山海关长城书法馆,https://you.ctrip.com/sight/qinhuangdao132/145484963.html?scene=online,河北省秦皇岛市山海关区古城街道东大街3-9,,,,QingHuangDao
二十四间房,https://you.ctrip.com/sight/qinhuangdao132/145484959.html?scene=online,秦皇岛市山海关区三道关村附近长寿山景区内,,,,QingHuangDao
天后宫,https://you.ctrip.com/sight/qinhuangdao132/145484954.html?scene=online,秦皇岛市山海关区龙海大道1号老龙头景区海神庙内,,,,QingHuangDao
滚球组合,https://you.ctrip.com/sight/qinhuangdao132/145484951.html?scene=online,秦皇岛市山海关区龙海大道148号乐岛公园海洋嘉年华内,,,,QingHuangDao
私塾馆,https://you.ctrip.com/sight/qinhuangdao132/145482673.html?scene=online,秦皇岛市山海关区东三条29~31号王家大院内,,,,QingHuangDao
居安思危,https://you.ctrip.com/sight/qinhuangdao132/145481153.html?scene=online,秦皇岛市山海关区西大街秦皇岛廉政文化研究会旁边甲申史鉴馆内,,,,QingHuangDao
望亰迎恩,https://you.ctrip.com/sight/qinhuangdao132/145474754.html?scene=online,秦皇岛市山海关区古城西大街山海关总兵府景区山海镇总兵府内,,,,QingHuangDao
御佛堂,https://you.ctrip.com/sight/qinhuangdao132/145471259.html?scene=online,秦皇岛市山海关区老龙头奇观园购物广场旁,,,,QingHuangDao
核桃楸,https://you.ctrip.com/sight/qinhuangdao132/145471257.html?scene=online,秦皇岛市山海关区三道关村附近长寿山景区内,,,,QingHuangDao
道光御制卧碑,https://you.ctrip.com/sight/qinhuangdao132/145464942.html?scene=online,秦皇岛市山海关区龙海大道1号老龙头景区内,,,,QingHuangDao
山海关古城景区-珍宝隆,https://you.ctrip.com/sight/qinhuangdao132/145461508.html?scene=online,河北省秦皇岛市山海关区古城街道南大街6-3,,,,QingHuangDao
普贤殿,https://you.ctrip.com/sight/qinhuangdao132/145455149.html?scene=online,秦皇岛市山海关区古城东北片区大悲院内,,,,QingHuangDao
龙王庙,https://you.ctrip.com/sight/qinhuangdao132/145455122.html?scene=online,秦皇岛市山海关区龙海大道1号老龙头景区内,,,,QingHuangDao
金蟾戏水,https://you.ctrip.com/sight/qinhuangdao132/145455121.html?scene=online,秦皇岛市山海关区小陈庄北燕塞湖景区内,,,,QingHuangDao
海底总动员,https://you.ctrip.com/sight/qinhuangdao132/145455120.html?scene=online,秦皇岛市山海关区龙海大道148号乐岛公园内,,,,QingHuangDao
鸟艺表演场,https://you.ctrip.com/sight/qinhuangdao132/145445370.html?scene=online,秦皇岛市山海关区城西北7华里燕塞湖景区鸟语林内,,,,QingHuangDao
鑫耀台球俱乐部,https://you.ctrip.com/sight/qinhuangdao132/145445296.html?scene=online,河北省秦皇岛市山海关区南关街道新华商城2号楼兴华商城D座4楼(万孚购物广场对面),,,,QingHuangDao
水上双人滚桶,https://you.ctrip.com/sight/qinhuangdao132/145445285.html?scene=online,秦皇岛市山海关区龙海大道148号乐岛公园内,,,,QingHuangDao
观海亭,https://you.ctrip.com/sight/qinhuangdao132/145435487.html?scene=online,秦皇岛市山海关区龙海大道1号老龙头景区海神庙内,,,,QingHuangDao
子母龟石地质地貌景观,https://you.ctrip.com/sight/qinhuangdao132/145425646.html?scene=online,秦皇岛市山海关区三道关村附近长寿山景区内,,,,QingHuangDao
荟聚武道跆拳道馆,https://you.ctrip.com/sight/qinhuangdao132/145425639.html?scene=online,河北省秦皇岛市山海关区江苏南路家惠超市3楼,,,,QingHuangDao
乾清阁,https://you.ctrip.com/sight/qinhuangdao132/145425633.html?scene=online,秦皇岛市山海关区龙海大道1号山海行宫内,,,,QingHuangDao
山海关古城景区汉珍斋,https://you.ctrip.com/sight/qinhuangdao132/145413828.html?scene=online,河北省秦皇岛市山海关区东大街12号,,,,QingHuangDao
兵械阁,https://you.ctrip.com/sight/qinhuangdao132/145412423.html?scene=online,秦皇岛市山海关区古城西大街山海关总兵府景区山海镇总兵府内,,,,QingHuangDao
大雄宝殿,https://you.ctrip.com/sight/qinhuangdao132/145405225.html?scene=online,秦皇岛市山海关区古城东北片区大悲院内,,,,QingHuangDao
山海关老龙头景区-明代战船,https://you.ctrip.com/sight/qinhuangdao132/145403118.html?scene=online,秦皇岛市山海关区龙海大道1号老龙头景区龙武营内,,,,QingHuangDao
老龙头石拱桥东北,https://you.ctrip.com/sight/qinhuangdao132/145401654.html?scene=online,河北省秦皇岛市山海关区第一关镇海口道,,,,QingHuangDao
渝关风范,https://you.ctrip.com/sight/qinhuangdao132/145395308.html?scene=online,秦皇岛市山海关区五佛山国际生态旅游度假区角山景区栖贤寺内,,,,QingHuangDao
开泰阁,https://you.ctrip.com/sight/qinhuangdao132/145395287.html?scene=online,秦皇岛市山海关区古城西大街山海关总兵府景区十二生肖太岁神院内,,,,QingHuangDao
海洋嘉年华-冲浪,https://you.ctrip.com/sight/qinhuangdao132/145395285.html?scene=online,秦皇岛市山海关区龙海大道148号乐岛公园海洋嘉年华内,,,,QingHuangDao
马厩,https://you.ctrip.com/sight/qinhuangdao132/145395270.html?scene=online,秦皇岛市山海关区龙海大道1号老龙头景区龙武营内,,,,QingHuangDao
欢乐飞椅,https://you.ctrip.com/sight/qinhuangdao132/145393273.html?scene=online,秦皇岛市山海关区龙海大道148号乐岛公园海洋嘉年华内,,,,QingHuangDao
天外飞来,https://you.ctrip.com/sight/qinhuangdao132/145391861.html?scene=online,秦皇岛市山海关区三道关村附近长寿山景区内,,,,QingHuangDao
组合滑道,https://you.ctrip.com/sight/qinhuangdao132/145391837.html?scene=online,秦皇岛市山海关区龙海大道148号乐岛公园戏水乐园内,,,,QingHuangDao
鹿园,https://you.ctrip.com/sight/qinhuangdao132/145385480.html?scene=online,秦皇岛市山海关区燕塞湖路松鼠园内,,,,QingHuangDao
镇远镖局-议事厅,https://you.ctrip.com/sight/qinhuangdao132/145385479.html?scene=online,秦皇岛市山海关区吉城西大街14号镇远镖局内,,,,QingHuangDao
宇枫乒乓球俱乐部,https://you.ctrip.com/sight/qinhuangdao132/146065321.html?scene=online,河北省秦皇岛市山海关区秦山路9号,,,,QingHuangDao
海之鑫恒温游泳中心(山海关店),https://you.ctrip.com/sight/qinhuangdao132/146135088.html?scene=online,秦皇岛市山海关区平安里街平安东里,,,,QingHuangDao
生肖墙,https://you.ctrip.com/sight/qinhuangdao132/148619023.html?scene=online,秦皇岛市山海关区古城西大街山海关总兵府景区十二生肖太岁神院内,,,,QingHuangDao
悦峰房车营地,https://you.ctrip.com/sight/qinhuangdao132/148662103.html?scene=online,河北省秦皇岛市山海关区关城东路38号,,,,QingHuangDao
北戴河海边轰趴别墅(海口道分店),https://you.ctrip.com/sight/qinhuangdao132/148871544.html?scene=online,秦皇岛市山海关区海口道假日蓝湾南侧约50米,,,,QingHuangDao
77号台球研究所,https://you.ctrip.com/sight/qinhuangdao132/149547529.html?scene=online,河北省秦皇岛市山海关区兴华商城2A-3-26(三楼),,,,QingHuangDao
忠之武道馆,https://you.ctrip.com/sight/qinhuangdao132/149547269.html?scene=online,河北省秦皇岛市山海关区樱园10号楼底商102号正西方向150米,,,,QingHuangDao
佟杏林养生馆,https://you.ctrip.com/sight/qinhuangdao132/149547236.html?scene=online,秦皇岛市山海关区亚龙湾小区,,,,QingHuangDao
山海关雨涵大樱桃种植园,https://you.ctrip.com/sight/qinhuangdao132/149377988.html?scene=online,河北省秦皇岛市山海关区安民寨浴池北行100米右转直行200米,,,,QingHuangDao
秦皇岛韶怡轩康养中心,https://you.ctrip.com/sight/qinhuangdao132/149368271.html?scene=online,秦皇岛市山海关区海口道山海壹号东侧约200米,,,,QingHuangDao
俪甲手足护理,https://you.ctrip.com/sight/qinhuangdao132/149352831.html?scene=online,秦皇岛市山海关区,,,,QingHuangDao
嘉木红樱桃,https://you.ctrip.com/sight/qinhuangdao132/149352812.html?scene=online,河北省秦皇岛市山海关区猛姜镇后棉花庄,,,,QingHuangDao
山海关万濠娱乐,https://you.ctrip.com/sight/qinhuangdao132/149343416.html?scene=online,河北省秦皇岛市山海关区上海道77号,,,,QingHuangDao
乔氏台球文化产业园,https://you.ctrip.com/sight/qinhuangdao132/149265829.html?scene=online,河北省秦皇岛市山海关区燕塞湖路1号,,,,QingHuangDao
贞女祠,https://you.ctrip.com/sight/qinhuangdao132/148871543.html?scene=online,秦皇岛市山海关区城东约6公里的望夫石村后山岗上孟姜女庙景区内,,,,QingHuangDao
少林禅武堂(二分店),https://you.ctrip.com/sight/qinhuangdao132/148862301.html?scene=online,秦皇岛市山海关区教军场路天成宾馆(秦皇岛山海关店),,,,QingHuangDao
108级石阶,https://you.ctrip.com/sight/qinhuangdao132/148862289.html?scene=online,秦皇岛市山海关区城东约6公里的望夫石村后山岗上孟姜女庙景区内,,,,QingHuangDao
尚水洗浴(山海关医院店),https://you.ctrip.com/sight/qinhuangdao132/148777212.html?scene=online,关城南路与南苑西路交叉口西240米,,,,QingHuangDao
山海关区基督教福音堂管理委员会,https://you.ctrip.com/sight/qinhuangdao132/148777208.html?scene=online,河北省秦皇岛市山海关区东大街1号山海关-天下第一关景区(西南角),,,,QingHuangDao
子鼠丑牛太岁殿,https://you.ctrip.com/sight/qinhuangdao132/148758191.html?scene=online,秦皇岛市山海关区古城西大街山海关总兵府景区十二生肖太岁神院内,,,,QingHuangDao
炮弹飞车,https://you.ctrip.com/sight/qinhuangdao132/148748655.html?scene=online,秦皇岛市山海关区龙海大道148号乐岛公园海洋嘉年华内,,,,QingHuangDao
华婴阳光孕婴童用品(山海关天大店),https://you.ctrip.com/sight/qinhuangdao132/148710431.html?scene=online,关城南路28号(人民医院正门斜对面),,,,QingHuangDao
邓小平题词碑,https://you.ctrip.com/sight/qinhuangdao132/148691043.html?scene=online,秦皇岛市山海关区龙海大道1号老龙头景区内,,,,QingHuangDao
金星水汇,https://you.ctrip.com/sight/qinhuangdao132/148691035.html?scene=online,秦皇岛市山海关区关城南路爱朴儿幼儿园东南侧,,,,QingHuangDao
台球俱乐部,https://you.ctrip.com/sight/qinhuangdao132/148686890.html?scene=online,河北省秦皇岛市山海关区南园大街南园小学北侧约40米,,,,QingHuangDao
安奉阁,https://you.ctrip.com/sight/qinhuangdao132/148681445.html?scene=online,秦皇岛市山海关区古城西大街山海关总兵府景区十二生肖太岁神院内,,,,QingHuangDao
因缘廊,https://you.ctrip.com/sight/qinhuangdao132/148677179.html?scene=online,秦皇岛市山海关区古城西大街山海关总兵府景区十二生肖太岁神院内,,,,QingHuangDao
韩都汗蒸养生会馆(老龙头路店),https://you.ctrip.com/sight/qinhuangdao132/148671780.html?scene=online,河北省秦皇岛市山海关区南海西路4号,,,,QingHuangDao
腰铺九号敌台,https://you.ctrip.com/sight/qinhuangdao132/148671752.html?scene=online,秦皇岛市山海关区角山路,,,,QingHuangDao
六翼篮羽俱乐部,https://you.ctrip.com/sight/qinhuangdao132/148662118.html?scene=online,秦皇岛市山海关区船厂路山船幼儿园西门东南侧约100米,,,,QingHuangDao
云水禅心,https://you.ctrip.com/sight/qinhuangdao132/148652452.html?scene=online,河北省秦皇岛市山海关区,,,,QingHuangDao
忠义武术馆,https://you.ctrip.com/sight/qinhuangdao132/148650477.html?scene=online,秦皇岛市山海关区天元亨路兴华商城,,,,QingHuangDao
利刃武术搏击俱乐部(兴华商城店),https://you.ctrip.com/sight/qinhuangdao132/148649729.html?scene=online,秦皇岛市山海关区天元亨路秦皇岛永兴快捷宾馆,,,,QingHuangDao
义枪,https://you.ctrip.com/sight/qinhuangdao132/148642683.html?scene=online,秦皇岛市山海关区古城西大街山海关总兵府景区山海镇总兵府内,,,,QingHuangDao
弓弩射击场,https://you.ctrip.com/sight/qinhuangdao132/148640019.html?scene=online,秦皇岛市山海关区东大街1号天下第一关景区内,,,,QingHuangDao
陈圆圆房,https://you.ctrip.com/sight/qinhuangdao132/148638434.html?scene=online,秦皇岛市山海关区东三条29~31号王家大院内,,,,QingHuangDao
龙华寺,https://you.ctrip.com/sight/qinhuangdao132/148633041.html?scene=online,秦皇岛市山海关区长寿山路孟姜镇人民政府西侧约190米,,,,QingHuangDao
博茂台球,https://you.ctrip.com/sight/qinhuangdao132/148633030.html?scene=online,河北省秦皇岛市山海关区金江家园一号门市,,,,QingHuangDao
寅虎亥猪太岁殿,https://you.ctrip.com/sight/qinhuangdao132/148623332.html?scene=online,秦皇岛市山海关区古城西大街山海关总兵府景区十二生肖太岁神院内,,,,QingHuangDao
天一钓场,https://you.ctrip.com/sight/qinhuangdao132/148613549.html?scene=online,河北省秦皇岛市山海关区石河镇,,,,QingHuangDao
阎家岭水库,https://you.ctrip.com/sight/qinhuangdao132/148603747.html?scene=online,秦皇岛市山海关区,,,,QingHuangDao
盛泉浴池(角山路店),https://you.ctrip.com/sight/qinhuangdao132/148603729.html?scene=online,河北省秦皇岛市山海关区角山路1号,,,,QingHuangDao
华婴阳光孕婴童用品(NO.31山海关天府店),https://you.ctrip.com/sight/qinhuangdao132/148593944.html?scene=online,天元亨3-17号,,,,QingHuangDao
韩都汗蒸养生会馆(大龙道小区店),https://you.ctrip.com/sight/qinhuangdao132/148584136.html?scene=online,秦皇岛市山海关区顺达街大龙道小区,,,,QingHuangDao
八卦阵,https://you.ctrip.com/sight/qinhuangdao132/148584118.html?scene=online,秦皇岛市山海关区龙海大道1号老龙头景区内,,,,QingHuangDao
土地庙,https://you.ctrip.com/sight/qinhuangdao132/148570017.html?scene=online,秦皇岛市山海关区古城西大街山海关总兵府景区十二生肖太岁神院内,,,,QingHuangDao
路南街道党史纪念馆,https://you.ctrip.com/sight/qinhuangdao132/148564406.html?scene=online,河北省秦皇岛市山海关区石河旺角一号楼秦皇岛市山海关区路南街道办事处1层,,,,QingHuangDao
忠刀,https://you.ctrip.com/sight/qinhuangdao132/148550280.html?scene=online,秦皇岛市山海关区古城西大街山海关总兵府景区山海镇总兵府内,,,,QingHuangDao
离城半日森林营地,https://you.ctrip.com/sight/qinhuangdao132/148534734.html?scene=online,河北省秦皇岛市山海关区G228(龙海大道),,,,QingHuangDao
戚继光将台,https://you.ctrip.com/sight/qinhuangdao132/148534672.html?scene=online,秦皇岛市山海关区老龙头路1号山海关老龙头景区内,,,,QingHuangDao
氿龙农场跑马场,https://you.ctrip.com/sight/qinhuangdao132/146164978.html?scene=online,河北省秦皇岛市山海关区102国道冀东花卉市场东侧,,,,QingHuangDao
山海优冠台球器材,https://you.ctrip.com/sight/qinhuangdao132/146145080.html?scene=online,河北省秦皇岛市山海关区燕塞湖东路166号,,,,QingHuangDao
义道馆,https://you.ctrip.com/sight/qinhuangdao132/146145003.html?scene=online,秦皇岛市山海关区石河路山海关石桥农贸批发市场,,,,QingHuangDao
儿童游乐园,https://you.ctrip.com/sight/qinhuangdao132/146145002.html?scene=online,秦皇岛市山海关区东水关街23号(近火车站)莲花湖公园内,,,,QingHuangDao
电玩台球,https://you.ctrip.com/sight/qinhuangdao132/146135099.html?scene=online,秦皇岛市山海关区江苏南路碧海花园东侧约30米,,,,QingHuangDao
天福浴池,https://you.ctrip.com/sight/qinhuangdao132/146125120.html?scene=online,河北省秦皇岛市山海关区关城南路139号,,,,QingHuangDao
少北武术馆,https://you.ctrip.com/sight/qinhuangdao132/146125117.html?scene=online,秦皇岛市山海关区小西关大街山海国际,,,,QingHuangDao
星阳运动俱乐部,https://you.ctrip.com/sight/qinhuangdao132/146114838.html?scene=online,河北秦皇岛市山海关区秦山东路9号,,,,QingHuangDao
今晚台球俱乐部,https://you.ctrip.com/sight/qinhuangdao132/146110697.html?scene=online,秦皇岛市山海关区石河路左岸香颂西南侧约30米,,,,QingHuangDao
山海关顺隆大众浴池,https://you.ctrip.com/sight/qinhuangdao132/146104989.html?scene=online,秦皇岛市山海关区燕塞湖东路,,,,QingHuangDao
独牙台球青年创业基地,https://you.ctrip.com/sight/qinhuangdao132/146104964.html?scene=online,河北省秦皇岛市山海关区石河路左岸香颂西南侧约40米,,,,QingHuangDao
瀚海楼洗浴,https://you.ctrip.com/sight/qinhuangdao132/146085115.html?scene=online,河北省秦皇岛市山海关区关城东路15号,,,,QingHuangDao
飞鱼冰雪轮滑,https://you.ctrip.com/sight/qinhuangdao132/146071110.html?scene=online,河北省秦皇岛市山海关区兴华商城2楼,,,,QingHuangDao
轩威散打搏击馆,https://you.ctrip.com/sight/qinhuangdao132/146065325.html?scene=online,秦皇岛市山海关区南关大街兴华小区(货场前街)南侧约50米,,,,QingHuangDao
美扬时代24小时自助台球,https://you.ctrip.com/sight/qinhuangdao132/146055463.html?scene=online,秦皇岛市山海关区石河路左岸香颂西侧约40米,,,,QingHuangDao
龙城帝国广场,https://you.ctrip.com/sight/qinhuangdao132/146051254.html?scene=online,河北省秦皇岛市山海关区西大街55号,,,,QingHuangDao
大伙沐浴,https://you.ctrip.com/sight/qinhuangdao132/146045552.html?scene=online,河北省秦皇岛市山海关区南海西路145号,,,,QingHuangDao
辰沅浴池,https://you.ctrip.com/sight/qinhuangdao132/146025826.html?scene=online,河北省秦皇岛市山海关区石河镇兴富庄村53号,,,,QingHuangDao
鸿湖大众洗浴,https://you.ctrip.com/sight/qinhuangdao132/146025741.html?scene=online,河北省秦皇岛市山海关区贵州路渤海家园第六小区西南侧（赵牛庄市场东侧）,,,,QingHuangDao
清水源沐浴,https://you.ctrip.com/sight/qinhuangdao132/146021618.html?scene=online,河北省秦皇岛市山海关区龙廷小区1栋3,,,,QingHuangDao
汇人源洗浴,https://you.ctrip.com/sight/qinhuangdao132/146015853.html?scene=online,河北省秦皇岛市山海关区山海新城商业楼H号,,,,QingHuangDao
河马洗护(南苑小区店),https://you.ctrip.com/sight/qinhuangdao132/145996064.html?scene=online,秦皇岛市山海关区南苑东路南苑小区,,,,QingHuangDao
跆风跆拳道自由搏击,https://you.ctrip.com/sight/qinhuangdao132/145986173.html?scene=online,河北省秦皇岛市山海关区老龙头路博维龙庭小区1号楼3楼,,,,QingHuangDao
东港一小乡村少年宫,https://you.ctrip.com/sight/qinhuangdao132/144223423.html?scene=online,河北省秦皇岛市山海关区临港物流园区东港镇第一小学,,,,QingHuangDao
梅花鹿,https://you.ctrip.com/sight/qinhuangdao132/145247213.html?scene=online,秦皇岛市山海关区燕塞湖路松鼠园鹿园内,,,,QingHuangDao
河马洗护(山海关店),https://you.ctrip.com/sight/qinhuangdao132/146155909.html?scene=online,秦皇岛市海港区广大龙院道3号、21号,,,,QingHuangDao
